{
  "type": "FeatureCollection",
  "features": [
    {
      "type": "Feature",
      "properties": {
        "norad_id": 39773,
        "name": "EUTELSAT 3B",
        "group": "eutelsat",
        "lat": -0.08288087629140438,
        "lon": -90.89870049522258,
        "alt_km": 35771.52980855052,
        "timestamp": "2025-12-23T11:34:47.852912+00:00",
        "meta_object_name": "EUTELSAT 3B",
        "meta_object_id": "2014-030A",
        "meta_epoch": "2025-12-23T02:52:30.339840",
        "meta_mean_motion": 1.0027233,
        "meta_eccentricity": 0.0004297,
        "meta_inclination": 0.062,
        "meta_ra_of_asc_node": 344.888,
        "meta_arg_of_pericenter": 246.4665,
        "meta_mean_anomaly": 266.7925,
        "meta_ephemeris_type": 0,
        "meta_classification_type": "U",
        "meta_norad_cat_id": 39773,
        "meta_element_set_no": 999,
        "meta_rev_at_epoch": 4230,
        "meta_bstar": 0,
        "meta_mean_motion_dot": 4.1e-07,
        "meta_mean_motion_ddot": 0,
        "tle_line1": "1 39773U 14030A   25357.11979560  .00000041  00000+0  00000+0 0  9990",
        "tle_line2": "2 39773   0.0620 344.8880 0004297 246.4665 266.7925  1.00272330 42303"
      },
      "geometry": {
        "type": "Point",
        "coordinates": [
          -90.89870049522258,
          -0.08288087629140438
        ]
      }
    },
    {
      "type": "Feature",
      "properties": {
        "norad_id": 40425,
        "name": "EUTELSAT 115 WEST B",
        "group": "eutelsat",
        "lat": -0.00444187849738919,
        "lon": 151.0416366234722,
        "alt_km": 35787.544682051564,
        "timestamp": "2025-12-23T11:34:47.852923+00:00",
        "meta_object_name": "EUTELSAT 115 WEST B",
        "meta_object_id": "2015-010B",
        "meta_epoch": "2025-12-22T10:47:31.232256",
        "meta_mean_motion": 1.00269855,
        "meta_eccentricity": 2.522e-05,
        "meta_inclination": 0.0093,
        "meta_ra_of_asc_node": 153.5517,
        "meta_arg_of_pericenter": 151.4988,
        "meta_mean_anomaly": 193.1685,
        "meta_ephemeris_type": 0,
        "meta_classification_type": "U",
        "meta_norad_cat_id": 40425,
        "meta_element_set_no": 999,
        "meta_rev_at_epoch": 3962,
        "meta_bstar": 0,
        "meta_mean_motion_dot": -3e-08,
        "meta_mean_motion_ddot": 0,
        "tle_line1": "1 40425U 15010B   25356.44966704 -.00000003  00000+0  00000+0 0  9995",
        "tle_line2": "2 40425   0.0093 153.5517 0000252 151.4988 193.1685  1.00269855 39620"
      },
      "geometry": {
        "type": "Point",
        "coordinates": [
          151.0416366234722,
          -0.00444187849738919
        ]
      }
    },
    {
      "type": "Feature",
      "properties": {
        "norad_id": 40875,
        "name": "EUTELSAT 8 WEST B",
        "group": "eutelsat",
        "lat": -0.08382004721996916,
        "lon": -102.04871239774221,
        "alt_km": 35768.870143596614,
        "timestamp": "2025-12-23T11:34:47.852934+00:00",
        "meta_object_name": "EUTELSAT 8 WEST B",
        "meta_object_id": "2015-039B",
        "meta_epoch": "2025-12-23T02:49:23.140416",
        "meta_mean_motion": 1.00271203,
        "meta_eccentricity": 0.0004246,
        "meta_inclination": 0.0636,
        "meta_ra_of_asc_node": 4.3025,
        "meta_arg_of_pericenter": 268.5481,
        "meta_mean_anomaly": 213.4081,
        "meta_ephemeris_type": 0,
        "meta_classification_type": "U",
        "meta_norad_cat_id": 40875,
        "meta_element_set_no": 999,
        "meta_rev_at_epoch": 3789,
        "meta_bstar": 0,
        "meta_mean_motion_dot": -4.4e-07,
        "meta_mean_motion_ddot": 0,
        "tle_line1": "1 40875U 15039B   25357.11762894 -.00000044  00000+0  00000+0 0  9999",
        "tle_line2": "2 40875   0.0636   4.3025 0004246 268.5481 213.4081  1.00271203 37897"
      },
      "geometry": {
        "type": "Point",
        "coordinates": [
          -102.04871239774221,
          -0.08382004721996916
        ]
      }
    },
    {
      "type": "Feature",
      "properties": {
        "norad_id": 41310,
        "name": "EUTELSAT 9B",
        "group": "eutelsat",
        "lat": -0.046565833430715714,
        "lon": -85.02722124114497,
        "alt_km": 35766.517165917096,
        "timestamp": "2025-12-23T11:34:47.852945+00:00",
        "meta_object_name": "EUTELSAT 9B",
        "meta_object_id": "2016-005A",
        "meta_epoch": "2025-12-22T03:54:38.524896",
        "meta_mean_motion": 1.00273048,
        "meta_eccentricity": 0.0004511,
        "meta_inclination": 0.0657,
        "meta_ra_of_asc_node": 72.7349,
        "meta_arg_of_pericenter": 203.4472,
        "meta_mean_anomaly": 242.4516,
        "meta_ephemeris_type": 0,
        "meta_classification_type": "U",
        "meta_norad_cat_id": 41310,
        "meta_element_set_no": 999,
        "meta_rev_at_epoch": 3634,
        "meta_bstar": 0,
        "meta_mean_motion_dot": 8.4e-07,
        "meta_mean_motion_ddot": 0,
        "tle_line1": "1 41310U 16005A   25356.16294589  .00000084  00000+0  00000+0 0  9996",
        "tle_line2": "2 41310   0.0657  72.7349 0004511 203.4472 242.4516  1.00273048 36349"
      },
      "geometry": {
        "type": "Point",
        "coordinates": [
          -85.02722124114497,
          -0.046565833430715714
        ]
      }
    },
    {
      "type": "Feature",
      "properties": {
        "norad_id": 41382,
        "name": "EUTELSAT 65 WEST A",
        "group": "eutelsat",
        "lat": -0.040054933700764,
        "lon": -159.2441365565605,
        "alt_km": 35783.27335346811,
        "timestamp": "2025-12-23T11:34:47.852956+00:00",
        "meta_object_name": "EUTELSAT 65 WEST A",
        "meta_object_id": "2016-014A",
        "meta_epoch": "2025-12-23T02:33:02.204928",
        "meta_mean_motion": 1.00272915,
        "meta_eccentricity": 0.000219,
        "meta_inclination": 0.0501,
        "meta_ra_of_asc_node": 338.7434,
        "meta_arg_of_pericenter": 296.1376,
        "meta_mean_anomaly": 150.0935,
        "meta_ephemeris_type": 0,
        "meta_classification_type": "U",
        "meta_norad_cat_id": 41382,
        "meta_element_set_no": 999,
        "meta_rev_at_epoch": 3577,
        "meta_bstar": 0,
        "meta_mean_motion_dot": -2.55e-06,
        "meta_mean_motion_ddot": 0,
        "tle_line1": "1 41382U 16014A   25357.10627552 -.00000255  00000+0  00000+0 0  9991",
        "tle_line2": "2 41382   0.0501 338.7434 0002190 296.1376 150.0935  1.00272915 35776"
      },
      "geometry": {
        "type": "Point",
        "coordinates": [
          -159.2441365565605,
          -0.040054933700764
        ]
      }
    },
    {
      "type": "Feature",
      "properties": {
        "norad_id": 41589,
        "name": "EUTELSAT 117 WEST B",
        "group": "eutelsat",
        "lat": -0.004976313571622139,
        "lon": 148.95611096709558,
        "alt_km": 35786.34464018509,
        "timestamp": "2025-12-23T11:34:47.852967+00:00",
        "meta_object_name": "EUTELSAT 117 WEST B",
        "meta_object_id": "2016-038B",
        "meta_epoch": "2025-12-23T03:22:56.461728",
        "meta_mean_motion": 1.0027203,
        "meta_eccentricity": 2.28e-05,
        "meta_inclination": 0.0093,
        "meta_ra_of_asc_node": 153.2648,
        "meta_arg_of_pericenter": 106.313,
        "meta_mean_anomaly": 126.0863,
        "meta_ephemeris_type": 0,
        "meta_classification_type": "U",
        "meta_norad_cat_id": 41589,
        "meta_element_set_no": 999,
        "meta_rev_at_epoch": 3489,
        "meta_bstar": 0,
        "meta_mean_motion_dot": 1e-07,
        "meta_mean_motion_ddot": 0,
        "tle_line1": "1 41589U 16038B   25357.14093127  .00000010  00000+0  00000+0 0  9993",
        "tle_line2": "2 41589   0.0093 153.2648 0000228 106.3130 126.0863  1.00272030 34891"
      },
      "geometry": {
        "type": "Point",
        "coordinates": [
          148.95611096709558,
          -0.004976313571622139
        ]
      }
    },
    {
      "type": "Feature",
      "properties": {
        "norad_id": 42741,
        "name": "EUTELSAT 172B",
        "group": "eutelsat",
        "lat": 0.007957623433230438,
        "lon": 77.96673894957483,
        "alt_km": 35785.75780976289,
        "timestamp": "2025-12-23T11:34:47.852977+00:00",
        "meta_object_name": "EUTELSAT 172B",
        "meta_object_id": "2017-029B",
        "meta_epoch": "2025-12-22T22:32:23.062848",
        "meta_mean_motion": 1.0027045,
        "meta_eccentricity": 2.19e-05,
        "meta_inclination": 0.0252,
        "meta_ra_of_asc_node": 115.6148,
        "meta_arg_of_pericenter": 5.7536,
        "meta_mean_anomaly": 120.4703,
        "meta_ephemeris_type": 0,
        "meta_classification_type": "U",
        "meta_norad_cat_id": 42741,
        "meta_element_set_no": 999,
        "meta_rev_at_epoch": 3196,
        "meta_bstar": 0,
        "meta_mean_motion_dot": 1.6e-07,
        "meta_mean_motion_ddot": 0,
        "tle_line1": "1 42741U 17029B   25356.93915582  .00000016  00000+0  00000+0 0  9995",
        "tle_line2": "2 42741   0.0252 115.6148 0000219   5.7536 120.4703  1.00270450 31968"
      },
      "geometry": {
        "type": "Point",
        "coordinates": [
          77.96673894957483,
          0.007957623433230438
        ]
      }
    }
  ]
}